[{"OBJECT_NAME":"STARLINK-31816","OBJECT_ID":"2024-090N","EPOCH":"2026-03-09T08:25:17.568192","MEAN_MOTION":15.27579477,"ECCENTRICITY":0.00013718,"INCLINATION":42.9989,"RA_OF_ASC_NODE":185.785,"ARG_OF_PERICENTER":286.0581,"MEAN_ANOMALY":74.0119,"EPHEMERIS_TYPE":0,"CLASSIFICATION_TYPE":"U","NORAD_CAT_ID":59742,"ELEMENT_SET_NO":999,"REV_AT_EPOCH":10336,"BSTAR":-5.8813237e-5,"MEAN_MOTION_DOT":-1.88e-5,"MEAN_MOTION_DDOT":0},{"OBJECT_NAME":"OBJECT M","OBJECT_ID":"2024-205M","EPOCH":"2026-03-09T22:23:47.520096","MEAN_MOTION":15.27663844,"ECCENTRICITY":0.00036602,"INCLINATION":97.3915,"RA_OF_ASC_NODE":144.193,"ARG_OF_PERICENTER":310.2554,"MEAN_ANOMALY":49.8364,"EPHEMERIS_TYPE":0,"CLASSIFICATION_TYPE":"U","NORAD_CAT_ID":61905,"ELEMENT_SET_NO":999,"REV_AT_EPOCH":7334,"BSTAR":0.00036391974,"MEAN_MOTION_DOT":9.771e-5,"MEAN_MOTION_DDOT":0}]
